[{"OBJECT_NAME":"ICEYE-X4","OBJECT_ID":"2019-038D","EPOCH":"2026-03-09T23:53:58.416000","MEAN_MOTION":15.26985132,"ECCENTRICITY":0.00122769,"INCLINATION":97.8888,"RA_OF_ASC_NODE":96.1923,"ARG_OF_PERICENTER":293.9914,"MEAN_ANOMALY":66.0038,"EPHEMERIS_TYPE":0,"CLASSIFICATION_TYPE":"U","NORAD_CAT_ID":44390,"ELEMENT_SET_NO":999,"REV_AT_EPOCH":36665,"BSTAR":0.00049915294,"MEAN_MOTION_DOT":0.00013179,"MEAN_MOTION_DDOT":0},{"OBJECT_NAME":"STARLINK-32331","OBJECT_ID":"2024-191C","EPOCH":"2026-03-09T22:27:56.403072","MEAN_MOTION":15.2757183,"ECCENTRICITY":8.83e-5,"INCLINATION":42.9982,"RA_OF_ASC_NODE":156.6184,"ARG_OF_PERICENTER":290.7319,"MEAN_ANOMALY":69.3438,"EPHEMERIS_TYPE":0,"CLASSIFICATION_TYPE":"U","NORAD_CAT_ID":61623,"ELEMENT_SET_NO":999,"REV_AT_EPOCH":7753,"BSTAR":3.1885278e-5,"MEAN_MOTION_DOT":6.15e-6,"MEAN_MOTION_DDOT":0}]
